CCSDS_OEM_VERS = 1.0
CREATION_DATE  = 2017-05-11T11:33:15
ORIGINATOR     = GMAT USER

META_START
OBJECT_NAME          = MOPSSat_alt_35785_km_RAAN_180_041
OBJECT_ID            = SatId
CENTER_NAME          = Earth
REF_FRAME            = EME2000
TIME_SYSTEM          = UTC
START_TIME           = 2017-01-01T00:00:00.000
USEABLE_START_TIME   = 2017-01-01T00:00:00.000
USEABLE_STOP_TIME    = 2017-01-02T00:00:00.000
STOP_TIME            = 2017-01-02T00:00:00.000
INTERPOLATION        = Lagrange
INTERPOLATION_DEGREE = 7 
META_STOP


                                                                                   

2017-01-01T15:25:50.000   2.589619202196041e+04   3.327565057067767e+04  -1.380013891475679e+00  -2.426355666248319e+00   1.888337389463430e+00   2.746356363824842e-05
2017-01-01T15:26:00.000   2.587192158258144e+04   3.329452509557092e+04  -1.379738819878929e+00  -2.427732068418575e+00   1.886567479500672e+00   2.755075863020580e-05
2017-01-01T15:26:10.000   2.584763738548385e+04   3.331338191646659e+04  -1.379462876268223e+00  -2.429107179646353e+00   1.884796566479911e+00   2.763796608082243e-05
2017-01-01T15:26:20.000   2.582333944351613e+04   3.333222102338786e+04  -1.379186060518509e+00  -2.430480999204286e+00   1.883024651337916e+00   2.772518593085958e-05
2017-01-01T15:26:30.000   2.579902776958865e+04   3.335104240632545e+04  -1.378908372505963e+00  -2.431853526362635e+00   1.881251735015975e+00   2.781241812086741e-05
2017-01-01T15:26:40.000   2.577470237660180e+04   3.336984605529236e+04  -1.378629812107148e+00  -2.433224760393293e+00   1.879477818454640e+00   2.789966259144012e-05
2017-01-01T15:26:50.000   2.575036327776777e+04   3.338863196007799e+04  -1.378350379202764e+00  -2.434594700551839e+00   1.877702902617205e+00   2.798691928206815e-05
2017-01-01T15:27:00.000   2.572601048622086e+04   3.340740011054651e+04  -1.378070073673122e+00  -2.435963346099312e+00   1.875926988461285e+00   2.807418813253008e-05
2017-01-01T15:27:10.000   2.570164401516224e+04   3.342615049652578e+04  -1.377788895399817e+00  -2.437330696294092e+00   1.874150076949367e+00   2.816146908237398e-05
2017-01-01T15:27:20.000   2.567726387729961e+04   3.344488310823879e+04  -1.377506844259271e+00  -2.438696750423383e+00   1.872372169007952e+00   2.824876207292807e-05
2017-01-01T15:27:30.000   2.565287008540596e+04   3.346359793587312e+04  -1.377223920129167e+00  -2.440061507771802e+00   1.870593265568306e+00   2.833606704529424e-05
2017-01-01T15:27:40.000   2.562846265219326e+04   3.348229496967882e+04  -1.376940122887006e+00  -2.441424967628522e+00   1.868813367557239e+00   2.842338394080434e-05
2017-01-01T15:27:50.000   2.560404159062662e+04   3.350097419972382e+04  -1.376655452413662e+00  -2.442787129269434e+00   1.867032475920026e+00   2.851071269988022e-05
2017-01-01T15:28:00.000   2.557960691369152e+04   3.351963561607622e+04  -1.376369908590784e+00  -2.444147991970443e+00   1.865250591603423e+00   2.859805326288357e-05
2017-01-01T15:28:10.000   2.555515863439313e+04   3.353827920880338e+04  -1.376083491300735e+00  -2.445507555007395e+00   1.863467715555625e+00   2.868540557011161e-05
2017-01-01T15:28:20.000   2.553069676599310e+04   3.355690496779489e+04  -1.375796200429473e+00  -2.446865817643176e+00   1.861683848743527e+00   2.877276956097261e-05
2017-01-01T15:28:30.000   2.550622132169124e+04   3.357551288300194e+04  -1.375508035862727e+00  -2.448222779145159e+00   1.859898992129516e+00   2.886014517510133e-05
2017-01-01T15:28:40.000   2.548173231475071e+04   3.359410294434265e+04  -1.375218997487490e+00  -2.449578438778313e+00   1.858113146680598e+00   2.894753235191957e-05
2017-01-01T15:28:50.000   2.545722975794543e+04   3.361267514212176e+04  -1.374929085185496e+00  -2.450932795835796e+00   1.856326313328100e+00   2.903493103258894e-05
2017-01-01T15:29:00.000   2.543271366411253e+04   3.363122946661093e+04  -1.374638298839736e+00  -2.452285849608350e+00   1.854538493007959e+00   2.912234115805825e-05
2017-01-01T15:29:10.000   2.540818404602765e+04   3.364976590814380e+04  -1.374346638332999e+00  -2.453637599391240e+00   1.852749686651630e+00   2.920976266950221e-05
2017-01-01T15:29:20.000   2.538364091672079e+04   3.366828445687360e+04  -1.374054103551529e+00  -2.454988044466575e+00   1.850959895209110e+00   2.929719550721021e-05
2017-01-01T15:29:30.000   2.535908428924236e+04   3.368678510295385e+04  -1.373760694382343e+00  -2.456337184116482e+00   1.849169119631891e+00   2.938463961140597e-05
2017-01-01T15:29:40.000   2.533451417666237e+04   3.370526783653745e+04  -1.373466410713188e+00  -2.457685017623044e+00   1.847377360872891e+00   2.947209492225523e-05
2017-01-01T15:29:50.000   2.530993059230855e+04   3.372373264760125e+04  -1.373171252435482e+00  -2.459031544255506e+00   1.845584619903821e+00   2.955956137900402e-05
2017-01-01T15:30:00.000   2.528533354944637e+04   3.374217952618321e+04  -1.372875219440393e+00  -2.460376763287567e+00   1.843790897691852e+00   2.964703892113217e-05
2017-01-01T15:30:10.000   2.526072306140484e+04   3.376060846228879e+04  -1.372578311620371e+00  -2.461720673990554e+00   1.841996195208790e+00   2.973452748789969e-05
2017-01-01T15:30:20.000   2.523609914102124e+04   3.377901944630669e+04  -1.372280528862456e+00  -2.463063275663749e+00   1.840200513390577e+00   2.982202702034040e-05
2017-01-01T15:30:30.000   2.521146180119623e+04   3.379741246859303e+04  -1.371981871054957e+00  -2.464404567604047e+00   1.838403853177782e+00   2.990953745926854e-05
2017-01-01T15:30:40.000   2.518681105476861e+04   3.381578751956550e+04  -1.371682338085964e+00  -2.465744549112840e+00   1.836606215506460e+00   2.999705874573192e-05
2017-01-01T15:30:50.000   2.516214691483274e+04   3.383414458946304e+04  -1.371381929847100e+00  -2.467083219478481e+00   1.834807601331299e+00   3.008459081986107e-05
2017-01-01T15:31:00.000   2.513746939450329e+04   3.385248366852501e+04  -1.371080646230771e+00  -2.468420577989355e+00   1.833008011608475e+00   3.017213362172820e-05
2017-01-01T15:31:10.000   2.511277850691467e+04   3.387080474699027e+04  -1.370778487130115e+00  -2.469756623933808e+00   1.831207447295597e+00   3.025968709134101e-05
2017-01-01T15:31:20.000   2.508807426546006e+04   3.388910781492335e+04  -1.370475452442024e+00  -2.471091356587475e+00   1.829405909369146e+00   3.034725116781754e-05
2017-01-01T15:31:30.000   2.506335668347001e+04   3.390739286244949e+04  -1.370171542063120e+00  -2.472424775230416e+00   1.827603398801037e+00   3.043482579050364e-05
2017-01-01T15:31:40.000   2.503862577434124e+04   3.392565987966000e+04  -1.369866755891355e+00  -2.473756879140218e+00   1.825799916568007e+00   3.052241089852333e-05
2017-01-01T15:31:50.000   2.501388155096923e+04   3.394390885703146e+04  -1.369561093819024e+00  -2.475087667622560e+00   1.823995463610243e+00   3.061000643277303e-05
2017-01-01T15:32:00.000   2.498912402631693e+04   3.396213978500529e+04  -1.369254555739761e+00  -2.476417139980558e+00   1.822190040872850e+00   3.069761233392188e-05
2017-01-01T15:32:10.000   2.496435321326808e+04   3.398035265409647e+04  -1.368947141546744e+00  -2.477745295522694e+00   1.820383649295156e+00   3.078522854292776e-05
2017-01-01T15:32:20.000   2.493956912502121e+04   3.399854745460072e+04  -1.368638851137504e+00  -2.479072133541457e+00   1.818576289839448e+00   3.087285499964872e-05
2017-01-01T15:32:30.000   2.491477177476477e+04   3.401672417683646e+04  -1.368329684409972e+00  -2.480397653330995e+00   1.816767963467273e+00   3.096049164398823e-05
2017-01-01T15:32:40.000   2.488996117574950e+04   3.403488281109073e+04  -1.368019641263355e+00  -2.481721854183160e+00   1.814958671144722e+00   3.104813841563904e-05
2017-01-01T15:32:50.000   2.486513734126966e+04   3.405302334763508e+04  -1.367708721597960e+00  -2.483044735388682e+00   1.813148413841061e+00   3.113579525415314e-05
2017-01-01T15:33:00.000   2.484030028463751e+04   3.407114577674254e+04  -1.367396925314824e+00  -2.484366296238396e+00   1.811337192526862e+00   3.122346209902745e-05
2017-01-01T15:33:10.000   2.481545001917437e+04   3.408925008869436e+04  -1.367084252315620e+00  -2.485686536023732e+00   1.809525008173367e+00   3.131113888973767e-05
2017-01-01T15:33:20.000   2.479058655812229e+04   3.410733627384529e+04  -1.366770702501555e+00  -2.487005454041483e+00   1.807711861746028e+00   3.139882556604052e-05
2017-01-01T15:33:30.000   2.476570991470265e+04   3.412540432257970e+04  -1.366456275774088e+00  -2.488323049590600e+00   1.805897754208798e+00   3.148652206777730e-05
2017-01-01T15:33:40.000   2.474082010211635e+04   3.414345422531178e+04  -1.366140972034937e+00  -2.489639321972211e+00   1.804082686524126e+00   3.157422833486892e-05
2017-01-01T15:33:50.000   2.471591713348386e+04   3.416148597252781e+04  -1.365824791185290e+00  -2.490954270492696e+00   1.802266659648605e+00   3.166194430754263e-05
2017-01-01T15:34:00.000   2.469100102193471e+04   3.417949955472214e+04  -1.365507733126961e+00  -2.492267894459029e+00   1.800449674539479e+00   3.174966992600061e-05
2017-01-01T15:34:10.000   2.466607178061650e+04   3.419749496239099e+04  -1.365189797762512e+00  -2.493580193178315e+00   1.798631732155319e+00   3.183740513039466e-05
2017-01-01T15:34:20.000   2.464112942271890e+04   3.421547218601317e+04  -1.364870984995511e+00  -2.494891165956389e+00   1.796812833457756e+00   3.192514986072054e-05
2017-01-01T15:34:30.000   2.461617396149459e+04   3.423343121603724e+04  -1.364551294730858e+00  -2.496200812096885e+00   1.794992979413022e+00   3.201290405676609e-05
2017-01-01T15:34:40.000   2.459120541018550e+04   3.425137204293374e+04  -1.364230726873811e+00  -2.497509130905031e+00   1.793172170986557e+00   3.210066765836277e-05
2017-01-01T15:34:50.000   2.456622378235294e+04   3.426929465696053e+04  -1.363909281334307e+00  -2.498816121670553e+00   1.791350409167099e+00   3.218844060424739e-05
